NORAD_CAT_ID,OBJECT_NAME,OBJECT_TYPE,EPOCH,MEAN_MOTION,ECCENTRICITY,INCLINATION,RA_OF_ASC_NODE,ARG_OF_PERICENTER,MEAN_ANOMALY,BSTAR,MEAN_MOTION_DOT,MEAN_MOTION_DDOT,TLE_LINE0,TLE_LINE1,TLE_LINE2,SEMIMAJOR_AXIS,PERIOD,APOGEE,PERIGEE,DECAYED
52346.0,STARLINK-3812,PAYLOAD,2023-05-03 05:10:31,15.08834851,0.00013,53.2151,194.4883,107.1735,252.9399,-9.4102e-06,-4.38e-06,0.0,0 STARLINK-3812,1 52346U 22045R   23123.21563982 -.00000438  00000-0 -94102-5 0  9998,2 52346  53.2151 194.4883 0001300 107.1735 252.9399 15.08834851 58559,6917.896,95.438,540.66,538.862,0.0
52346.0,STARLINK-3812,PAYLOAD,2023-05-03 13:07:26,15.08838304,0.0001403,53.2153,193.003,101.3186,258.7964,3.3977e-05,2.53e-06,0.0,0 STARLINK-3812,1 52346U 22045R   23123.54683928  .00000253  00000-0  33977-4 0  9992,2 52346  53.2153 193.0030 0001403 101.3186 258.7964 15.08838304 58605,6917.886,95.438,540.721,538.78,0.0
52346.0,STARLINK-3812,PAYLOAD,2023-05-03 14:42:49,15.08839275,0.0001409,53.2159,192.7048,108.1425,251.9721,6.6197e-05,7.66e-06,0.0,0 STARLINK-3812,1 52346U 22045R   23123.61307851  .00000766  00000-0  66197-4 0  9997,2 52346  53.2159 192.7048 0001409 108.1425 251.9721 15.08839275 58618,6917.883,95.438,540.722,538.773,0.0
52346.0,STARLINK-3812,PAYLOAD,2023-05-04 12:58:13,15.08848065,0.0001205,53.215,188.5427,91.9533,268.1597,0.00023097,3.391e-05,0.0,0 STARLINK-3812,1 52346U 22045R   23124.54043616  .00003391  00000-0  23097-3 0  9994,2 52346  53.2150 188.5427 0001205  91.9533 268.1597 15.08848065 58759,6917.856,95.437,540.554,538.887,0.0
52346.0,STARLINK-3812,PAYLOAD,2023-05-04 20:55:09,15.08844675,0.0001196,53.2147,187.0561,91.4798,268.6332,0.00026177,3.881e-05,0.0,0 STARLINK-3812,1 52346U 22045R   23124.87163776  .00003881  00000-0  26177-3 0  9996,2 52346  53.2147 187.0561 0001196  91.4798 268.6332 15.08844675 58806,6917.866,95.437,540.558,538.904,0.0
52346.0,STARLINK-3812,PAYLOAD,2023-05-05 09:38:14,15.08838457,0.0001282,53.2147,184.6775,93.9611,266.1528,7.9683e-05,9.8e-06,0.0,0 STARLINK-3812,1 52346U 22045R   23125.40156011  .00000980  00000-0  79683-4 0  9998,2 52346  53.2147 184.6775 0001282  93.9611 266.1528 15.08838457 58882,6917.885,95.438,540.637,538.863,0.0
52346.0,STARLINK-3812,PAYLOAD,2023-05-05 20:45:56,15.08837925,0.0001298,53.2152,182.5968,95.1422,264.9719,6.2886e-05,7.13e-06,0.0,0 STARLINK-3812,1 52346U 22045R   23125.86524203  .00000713  00000-0  62886-4 0  9991,2 52346  53.2152 182.5968 0001298  95.1422 264.9719 15.08837925 58955,6917.887,95.438,540.65,538.854,0.0
52346.0,STARLINK-3812,PAYLOAD,2023-05-06 11:04:24,15.08844265,0.0001355,53.2144,179.9199,91.2745,268.8402,0.00011018,1.466e-05,0.0,0 STARLINK-3812,1 52346U 22045R   23126.46140037  .00001466  00000-0  11018-3 0  9993,2 52346  53.2144 179.9199 0001355  91.2745 268.8402 15.08844265 59049,6917.867,95.437,540.67,538.795,0.0
52346.0,STARLINK-3812,PAYLOAD,2023-05-07 02:58:16,15.08846222,0.0001405,53.2139,176.9456,81.6317,278.4834,0.00022014,3.218e-05,0.0,0 STARLINK-3812,1 52346U 22045R   23127.12379955  .00003218  00000-0  22014-3 0  9995,2 52346  53.2139 176.9456 0001405  81.6317 278.4834 15.08846222 59142,6917.861,95.437,540.698,538.754,0.0
52346.0,STARLINK-3812,PAYLOAD,2023-05-07 10:55:11,15.08849741,0.0001054,53.2137,175.4578,91.6241,268.4872,0.00021874,3.196e-05,0.0,0 STARLINK-3812,1 52346U 22045R   23127.45499603  .00003196  00000-0  21874-3 0  9992,2 52346  53.2137 175.4578 0001054  91.6241 268.4872 15.08849741 59191,6917.851,95.437,540.445,538.986,0.0
52346.0,STARLINK-3812,PAYLOAD,2023-05-07 20:27:30,15.08842756,0.0001154,53.2139,173.6745,85.6424,274.47,0.00013261,1.823e-05,0.0,0 STARLINK-3812,1 52346U 22045R   23127.85244011  .00001823  00000-0  13261-3 0  9993,2 52346  53.2139 173.6745 0001154  85.6424 274.4700 15.08842756 59259,6917.872,95.437,540.535,538.939,0.0
52346.0,STARLINK-3812,PAYLOAD,2023-05-08 09:10:36,15.08838034,0.0001243,53.2153,171.2922,94.0332,266.0802,1.8378e-05,5e-08,0.0,0 STARLINK-3812,1 52346U 22045R   23128.38236420  .00000005  00000-0  18378-4 0  9993,2 52346  53.2153 171.2922 0001243  94.0332 266.0802 15.08838034 59330,6917.886,95.438,540.611,538.892,0.0
52346.0,STARLINK-3812,PAYLOAD,2023-05-08 20:18:18,15.08839682,0.0001291,53.2153,169.2106,95.9749,264.139,6.6463e-05,7.7e-06,0.0,0 STARLINK-3812,1 52346U 22045R   23128.84604437  .00000770  00000-0  66463-4 0  9998,2 52346  53.2153 169.2106 0001291  95.9749 264.1390 15.08839682 59405,6917.881,95.438,540.639,538.853,0.0
52346.0,STARLINK-3812,PAYLOAD,2023-05-09 10:36:45,15.08855735,0.0001567,53.2146,166.5345,111.1747,248.9412,-0.00022408,-3.854e-05,0.0,0 STARLINK-3812,1 52346U 22045R   23129.44219536 -.00003854  00000-0 -22408-3 0  9995,2 52346  53.2146 166.5345 0001567 111.1747 248.9412 15.08855735 59498,6917.832,95.437,540.781,538.613,0.0
52346.0,STARLINK-3812,PAYLOAD,2023-05-10 08:52:10,15.08843873,0.0001251,53.2142,162.3726,91.6497,268.4639,0.00020221,2.932e-05,0.0,0 STARLINK-3812,1 52346U 22045R   23130.36956484  .00002932  00000-0  20221-3 0  9993,2 52346  53.2142 162.3726 0001251  91.6497 268.4639 15.08843873 59639,6917.869,95.437,540.599,538.868,0.0
52346.0,STARLINK-3812,PAYLOAD,2023-05-11 08:42:57,15.08842631,0.0001349,53.2146,157.9128,93.5916,266.523,8.2679e-05,1.028e-05,0.0,0 STARLINK-3812,1 52346U 22045R   23131.36316439  .00001028  00000-0  82679-4 0  9995,2 52346  53.2146 157.9128 0001349  93.5916 266.5230 15.08842631 59787,6917.872,95.437,540.671,538.804,0.0
52346.0,STARLINK-3812,PAYLOAD,2023-05-11 18:15:16,15.08840408,0.0001326,53.2145,156.1287,89.7474,270.367,5.0821e-05,5.21e-06,0.0,0 STARLINK-3812,1 52346U 22045R   23131.76060522  .00000521  00000-0  50821-4 0  9999,2 52346  53.2145 156.1287 0001326  89.7474 270.3670 15.08840408 59842,6917.879,95.438,540.661,538.827,0.0
52346.0,STARLINK-3812,PAYLOAD,2023-05-12 06:58:22,15.0883451,0.0001397,53.2159,153.752,104.4383,255.6764,2.2857e-05,7.6e-07,0.0,0 STARLINK-3812,1 52346U 22045R   23132.29053254  .00000076  00000-0  22857-4 0  9995,2 52346  53.2159 153.7520 0001397 104.4383 255.6764 15.08834510 59928,6917.897,95.438,540.729,538.796,0.0
52346.0,STARLINK-3812,PAYLOAD,2023-05-13 06:49:08,15.08839587,0.0001535,53.2163,149.294,114.3137,245.8015,0.00010247,1.343e-05,0.0,0 STARLINK-3812,1 52346U 22045R   23133.28412894  .00001343  00000-0  10247-3 0  9991,2 52346  53.2163 149.2940 0001535 114.3137 245.8015 15.08839587 60077,6917.882,95.438,540.809,538.685,0.0
52346.0,STARLINK-3812,PAYLOAD,2023-05-13 08:24:31,15.08840861,0.0001414,53.216,148.9962,108.3453,251.7693,0.0001024,1.342e-05,0.0,0 STARLINK-3812,1 52346U 22045R   23133.35036843  .00001342  00000-0  10240-3 0  9997,2 52346  53.2160 148.9962 0001414 108.3453 251.7693 15.08840861 60080,6917.878,95.438,540.721,538.765,0.0
52346.0,STARLINK-3812,PAYLOAD,2023-05-13 17:56:50,15.08838199,0.0001331,53.2162,147.2118,92.4505,267.6639,7.9935e-05,9.84e-06,0.0,0 STARLINK-3812,1 52346U 22045R   23133.74781138  .00000984  00000-0  79935-4 0  9992,2 52346  53.2162 147.2118 0001331  92.4505 267.6639 15.08838199 60140,6917.886,95.438,540.672,538.83,0.0
52346.0,STARLINK-3812,PAYLOAD,2023-05-14 06:39:56,15.08837181,0.0001277,53.2156,144.8303,85.9096,274.2042,8.2697e-05,1.028e-05,0.0,0 STARLINK-3812,1 52346U 22045R   23134.27773380  .00001028  00000-0  82697-4 0  9990,2 52346  53.2156 144.8303 0001277  85.9096 274.2042 15.08837181 60224,6917.889,95.438,540.637,538.871,0.0
52346.0,STARLINK-3812,PAYLOAD,2023-05-14 08:15:19,15.0883707,0.0001273,53.2155,144.5321,84.7279,275.3859,7.9544e-05,9.78e-06,0.0,0 STARLINK-3812,1 52346U 22045R   23134.34397399  .00000978  00000-0  79544-4 0  9990,2 52346  53.2155 144.5321 0001273  84.7279 275.3859 15.08837070 60232,6917.889,95.438,540.635,538.874,0.0
52346.0,STARLINK-3812,PAYLOAD,2023-05-14 17:47:38,15.08837806,0.0001328,53.2158,142.7465,81.8601,278.2541,6.8747e-05,8.06e-06,0.0,0 STARLINK-3812,1 52346U 22045R   23134.74141423  .00000806  00000-0  68747-4 0  9992,2 52346  53.2158 142.7465 0001328  81.8601 278.2541 15.08837806 60295,6917.887,95.438,540.671,538.833,0.0
52346.0,STARLINK-3812,PAYLOAD,2023-05-15 06:30:43,15.08839252,0.0001237,53.2149,140.3677,82.6599,277.4534,3.5776e-05,2.82e-06,0.0,0 STARLINK-3812,1 52346U 22045R   23135.27133433  .00000282  00000-0  35776-4 0  9997,2 52346  53.2149 140.3677 0001237  82.6599 277.4534 15.08839252 60377,6917.883,95.438,540.603,538.892,0.0
52346.0,STARLINK-3812,PAYLOAD,2023-05-16 06:21:29,15.08844076,0.0001219,53.2149,135.9068,82.9941,277.119,0.00010813,1.434e-05,0.0,0 STARLINK-3812,1 52346U 22045R   23136.26492885  .00001434  00000-0  10813-3 0  9990,2 52346  53.2149 135.9068 0001219  82.9941 277.1190 15.08844076 60527,6917.868,95.437,540.576,538.89,0.0
52346.0,STARLINK-3812,PAYLOAD,2023-05-16 17:29:11,15.08842656,0.0001212,53.215,133.8252,82.2269,277.8861,8.1354e-05,1.007e-05,0.0,0 STARLINK-3812,1 52346U 22045R   23136.72860939  .00001007  00000-0  81354-4 0  9995,2 52346  53.2150 133.8252 0001212  82.2269 277.8861 15.08842656 60591,6917.872,95.437,540.576,538.899,0.0
52346.0,STARLINK-3812,PAYLOAD,2023-05-16 23:50:44,15.08838077,0.0001248,53.2154,132.6364,82.2233,277.8901,6.1527e-05,6.91e-06,0.0,0 STARLINK-3812,1 52346U 22045R   23136.99357287  .00000691  00000-0  61527-4 0  9999,2 52346  53.2154 132.6364 0001248  82.2233 277.8901 15.08838077 60638,6917.886,95.438,540.615,538.888,0.0
52346.0,STARLINK-3812,PAYLOAD,2023-05-17 06:12:17,15.08840384,0.00013,53.2159,131.4464,87.9332,272.1808,5.8067e-05,6.36e-06,0.0,0 STARLINK-3812,1 52346U 22045R   23137.25853129  .00000636  00000-0  58067-4 0  9999,2 52346  53.2159 131.4464 0001300  87.9332 272.1808 15.08840384 60674,6917.879,95.438,540.644,538.845,0.0
52346.0,STARLINK-3812,PAYLOAD,2023-05-18 02:52:18,15.08839264,0.0001292,53.2157,127.5807,87.1643,272.9497,3.755e-06,-2.28e-06,0.0,0 STARLINK-3812,1 52346U 22045R   23138.11965297 -.00000228  00000-0  37550-5 0  9998,2 52346  53.2157 127.5807 0001292  87.1643 272.9497 15.08839264 60808,6917.883,95.438,540.641,538.854,0.0
